NORAD_CAT_ID,OBJECT_NAME,OBJECT_TYPE,EPOCH,MEAN_MOTION,ECCENTRICITY,INCLINATION,RA_OF_ASC_NODE,ARG_OF_PERICENTER,MEAN_ANOMALY,BSTAR,MEAN_MOTION_DOT,MEAN_MOTION_DDOT,TLE_LINE0,TLE_LINE1,TLE_LINE2,SEMIMAJOR_AXIS,PERIOD,APOGEE,PERIGEE,DECAYED
50815.0,STARLINK-3234,PAYLOAD,2024-01-12 15:40:11,15.08841158,0.0001575,53.2188,102.2618,90.7931,269.3242,-1.2408e-05,-4.85e-06,0.0,0 STARLINK-3234,1 50815U 22001N   24012.65291465 -.00000485  00000-0 -12408-4 0  9999,2 50815  53.2188 102.2618 0001575  90.7931 269.3242 15.08841158111591,6917.877,95.437,540.831,538.652,0.0
50815.0,STARLINK-3234,PAYLOAD,2024-01-13 12:20:12,15.08849243,0.0001473,53.2175,98.3962,106.1159,253.9996,-2.2475e-05,-6.46e-06,0.0,0 STARLINK-3234,1 50815U 22001N   24013.51403034 -.00000646  00000-0 -22475-4 0  9996,2 50815  53.2175  98.3962 0001473 106.1159 253.9996 15.08849243112998,6917.852,95.437,540.736,538.698,0.0
50815.0,STARLINK-3234,PAYLOAD,2024-01-14 12:10:59,15.08843498,0.0001762,53.218,93.9352,92.2248,267.8945,0.0001807,2.589e-05,0.0,0 STARLINK-3234,1 50815U 22001N   24014.50763543  .00002589  00000-0  18070-3 0  9991,2 50815  53.2180  93.9352 0001762  92.2248 267.8945 15.08843498113145,6917.87,95.437,540.954,538.516,0.0
50815.0,STARLINK-3234,PAYLOAD,2024-01-15 10:26:23,15.08847494,0.0001642,53.2177,89.7733,98.2669,261.8509,0.00010753,1.424e-05,0.0,0 STARLINK-3234,1 50815U 22001N   24015.43499201  .00001424  00000-0  10753-3 0  9998,2 50815  53.2177  89.7733 0001642  98.2669 261.8509 15.08847494112012,6917.857,95.437,540.858,538.587,0.0
50815.0,STARLINK-3234,PAYLOAD,2024-01-16 11:52:34,15.08833888,0.0001407,53.2162,85.0165,84.528,275.5872,-8.1478e-05,-1.584e-05,0.0,0 STARLINK-3234,1 50815U 22001N   24016.49484210 -.00001584  00000-0 -81478-4 0  9991,2 50815  53.2162  85.0165 0001407  84.5280 275.5872 15.08833888113445,6917.899,95.438,540.737,538.791,0.0
50815.0,STARLINK-3234,PAYLOAD,2024-01-16 15:03:20,15.08833536,0.00014,53.2162,84.4217,85.1659,274.9493,-7.32e-05,-1.453e-05,0.0,0 STARLINK-3234,1 50815U 22001N   24016.62732282 -.00001453  00000-0 -73200-4 0  9990,2 50815  53.2162  84.4217 0001400  85.1659 274.9493 15.08833536112199,6917.9,95.438,540.734,538.797,0.0
50815.0,STARLINK-3234,PAYLOAD,2024-01-17 11:43:21,15.08848951,0.0001673,53.2176,80.5604,74.5804,285.5373,0.00020261,2.939e-05,0.0,0 STARLINK-3234,1 50815U 22001N   24017.48843975  .00002939  00000-0  20261-3 0  9993,2 50815  53.2176  80.5604 0001673  74.5804 285.5373 15.08848951113594,6917.853,95.437,540.875,538.561,0.0
50815.0,STARLINK-3234,PAYLOAD,2024-01-18 11:34:08,15.08846065,0.000187,53.2176,76.0999,70.0905,290.0289,0.00027288,4.058e-05,0.0,0 STARLINK-3234,1 50815U 22001N   24018.48204487  .00004058  00000-0  27288-3 0  9993,2 50815  53.2176  76.0999 0001870  70.0905 290.0289 15.08846065113741,6917.862,95.437,541.02,538.433,0.0
50815.0,STARLINK-3234,PAYLOAD,2024-01-18 13:09:31,15.0885073,0.000155,53.2166,75.8005,85.8789,274.238,0.00034033,5.134e-05,0.0,0 STARLINK-3234,1 50815U 22001N   24018.54828091  .00005134  00000-0  34033-3 0  9995,2 50815  53.2166  75.8005 0001550  85.8789 274.2380 15.08850730112484,6917.848,95.437,540.785,538.64,0.0
50815.0,STARLINK-3234,PAYLOAD,2024-01-19 13:00:18,15.08847478,0.0001872,53.2175,71.3336,73.7007,286.4191,0.0001716,2.444e-05,0.0,0 STARLINK-3234,1 50815U 22001N   24019.54188232  .00002444  00000-0  17160-3 0  9995,2 50815  53.2175  71.3336 0001872  73.7007 286.4191 15.08847478112635,6917.858,95.437,541.018,538.428,0.0
50815.0,STARLINK-3234,PAYLOAD,2024-01-20 09:40:19,15.0884191,0.0001691,53.217,67.4669,101.5723,258.5459,9.0633e-05,1.155e-05,0.0,0 STARLINK-3234,1 50815U 22001N   24020.40300380  .00001155  00000-0  90633-4 0  9997,2 50815  53.2170  67.4669 0001691 101.5723 258.5459 15.08841910114037,6917.875,95.437,540.909,538.57,0.0
50815.0,STARLINK-3234,PAYLOAD,2024-01-21 06:20:20,15.08832126,0.0002082,53.2177,63.6041,120.1084,240.0114,0.00036307,5.494e-05,0.0,0 STARLINK-3234,1 50815U 22001N   24021.26412881  .00005494  00000-0  36307-3 0  9999,2 50815  53.2177  63.6041 0002082 120.1084 240.0114 15.08832126112893,6917.904,95.438,541.21,538.329,0.0
50815.0,STARLINK-3234,PAYLOAD,2024-01-21 09:31:06,15.0884322,0.0001885,53.2176,63.008,104.6596,255.4606,0.0001039,1.366e-05,0.0,0 STARLINK-3234,1 50815U 22001N   24021.39660402  .00001366  00000-0  10390-3 0  9995,2 50815  53.2176  63.0080 0001885 104.6596 255.4606 15.08843220112910,6917.871,95.437,541.04,538.432,0.0
50815.0,STARLINK-3234,PAYLOAD,2024-01-22 03:00:21,15.0883513,0.0001598,53.2172,59.7437,89.6266,270.4909,1.4779e-05,-5.3e-07,0.0,0 STARLINK-3234,1 50815U 22001N   24022.12525266 -.00000053  00000-0  14779-4 0  9994,2 50815  53.2172  59.7437 0001598  89.6266 270.4909 15.08835130114298,6917.895,95.438,540.866,538.655,0.0
50815.0,STARLINK-3234,PAYLOAD,2024-01-22 06:11:08,15.08837584,0.0001597,53.2174,59.1506,91.6443,268.4732,1.3572e-05,-7.2e-07,0.0,0 STARLINK-3234,1 50815U 22001N   24022.25773161 -.00000072  00000-0  13572-4 0  9998,2 50815  53.2174  59.1506 0001597  91.6443 268.4732 15.08837584113048,6917.888,95.438,540.858,538.648,0.0
50815.0,STARLINK-3234,PAYLOAD,2024-01-22 09:21:54,15.08840074,0.0001635,53.2172,58.5563,91.7354,268.3825,3.1299e-05,2.1e-06,0.0,0 STARLINK-3234,1 50815U 22001N   24022.39020952  .00000210  00000-0  31299-4 0  9995,2 50815  53.2172  58.5563 0001635  91.7354 268.3825 15.08840074113069,6917.88,95.438,540.876,538.614,0.0
50815.0,STARLINK-3234,PAYLOAD,2024-01-23 06:01:55,15.08837189,0.0001564,53.2171,54.6889,90.7632,269.3539,8.5847e-05,1.078e-05,0.0,0 STARLINK-3234,1 50815U 22001N   24023.25133213  .00001078  00000-0  85847-4 0  9997,2 50815  53.2171  54.6889 0001564  90.7632 269.3539 15.08837189113195,6917.889,95.438,540.836,538.672,0.0
50815.0,STARLINK-3234,PAYLOAD,2024-01-23 09:12:41,15.08841112,0.0001896,53.2191,54.0922,104.9657,255.1545,8.9402e-05,1.135e-05,0.0,0 STARLINK-3234,1 50815U 22001N   24023.38380911  .00001135  00000-0  89402-4 0  9995,2 50815  53.2191  54.0922 0001896 104.9657 255.1545 15.08841112113216,6917.877,95.437,541.054,538.43,0.0
50815.0,STARLINK-3234,PAYLOAD,2024-01-24 09:03:28,15.08835411,0.0001809,53.2185,49.6367,78.724,281.3955,8.9151e-05,1.131e-05,0.0,0 STARLINK-3234,1 50815U 22001N   24024.37741740  .00001131  00000-0  89151-4 0  9993,2 50815  53.2185  49.6367 0001809  78.7240 281.3955 15.08835411114630,6917.894,95.438,541.011,538.508,0.0
50815.0,STARLINK-3234,PAYLOAD,2024-01-25 08:54:16,15.08800185,0.0002163,53.2193,45.1703,86.0261,274.0978,0.00077447,0.00012046,0.0,0 STARLINK-3234,1 50815U 22001N   24025.37102390  .00012046  00000-0  77447-3 0  9997,2 50815  53.2193  45.1703 0002163  86.0261 274.0978 15.08800185114783,6918.002,95.44,541.363,538.371,0.0
50815.0,STARLINK-3234,PAYLOAD,2024-01-26 07:09:39,15.0883991,0.0001954,53.2197,41.0071,79.8034,280.3178,6.638e-05,7.68e-06,0.0,0 STARLINK-3234,1 50815U 22001N   24026.29837785  .00000768  00000-0  66380-4 0  9995,2 50815  53.2197  41.0071 0001954  79.8034 280.3178 15.08839910114921,6917.881,95.438,541.097,538.394,0.0
50815.0,STARLINK-3234,PAYLOAD,2024-01-27 07:00:26,15.08843596,0.0001819,53.219,36.5516,91.9306,268.1895,5.3122e-05,5.57e-06,0.0,0 STARLINK-3234,1 50815U 22001N   24027.29197486  .00000557  00000-0  53122-4 0  9999,2 50815  53.2190  36.5516 0001819  91.9306 268.1895 15.08843596113805,6917.869,95.437,540.993,538.476,0.0
50815.0,STARLINK-3234,PAYLOAD,2024-01-28 05:15:50,15.08840513,0.0001841,53.2194,32.3865,105.1583,254.9612,7.2144e-05,8.6e-06,0.0,0 STARLINK-3234,1 50815U 22001N   24028.21933414  .00000860  00000-0  72144-4 0  9993,2 50815  53.2194  32.3865 0001841 105.1583 254.9612 15.08840513115213,6917.879,95.438,541.017,538.47,0.0
50815.0,STARLINK-3234,PAYLOAD,2024-01-28 06:51:13,15.08841274,0.0001822,53.2195,32.0892,102.9337,257.1859,7.7054e-05,9.38e-06,0.0,0 STARLINK-3234,1 50815U 22001N   24028.28557394  .00000938  00000-0  77054-4 0  9990,2 50815  53.2195  32.0892 0001822 102.9337 257.1859 15.08841274113954,6917.876,95.437,541.002,538.481,0.0
50815.0,STARLINK-3234,PAYLOAD,2024-01-29 06:42:00,15.0883929,0.0001924,53.2199,27.6307,111.8728,248.2469,3.1139e-05,2.07e-06,0.0,0 STARLINK-3234,1 50815U 22001N   24029.27917699  .00000207  00000-0  31139-4 0  9991,2 50815  53.2199  27.6307 0001924 111.8728 248.2469 15.08839290115376,6917.883,95.438,541.079,538.417,0.0
50815.0,STARLINK-3234,PAYLOAD,2024-01-30 04:57:24,15.08837813,0.0001835,53.2201,23.468,104.8672,255.2524,3.6367e-05,2.91e-06,0.0,0 STARLINK-3234,1 50815U 22001N   24030.20653926  .00000291  00000-0  36367-4 0  9997,2 50815  53.2201  23.4680 0001835 104.8672 255.2524 15.08837813114243,6917.887,95.438,541.022,538.483,0.0
50815.0,STARLINK-3234,PAYLOAD,2024-01-31 03:12:48,15.08839679,0.000171,53.2199,19.3034,104.2347,255.8835,5.4578e-05,5.81e-06,0.0,0 STARLINK-3234,1 50815U 22001N   24031.13389875  .00000581  00000-0  54578-4 0  9995,2 50815  53.2199  19.3034 0001710 104.2347 255.8835 15.08839679115650,6917.881,95.438,540.929,538.563,0.0
50815.0,STARLINK-3234,PAYLOAD,2024-01-31 04:48:11,15.08841528,0.0001703,53.2195,19.0059,102.7879,257.3304,7.1961e-05,8.57e-06,0.0,0 STARLINK-3234,1 50815U 22001N   24031.20013728  .00000857  00000-0  71961-4 0  9995,2 50815  53.2195  19.0059 0001703 102.7879 257.3304 15.08841528114399,6917.876,95.437,540.919,538.563,0.0
50815.0,STARLINK-3234,PAYLOAD,2024-01-31 22:17:26,15.08839118,0.0001856,53.2201,15.7343,105.5137,254.606,5.9555e-05,6.6e-06,0.0,0 STARLINK-3234,1 50815U 22001N   24031.92877937  .00000660  00000-0  59555-4 0  9991,2 50815  53.2201  15.7343 0001856 105.5137 254.6060 15.08839118114507,6917.883,95.438,541.032,538.464,0.0
50815.0,STARLINK-3234,PAYLOAD,2024-02-01 06:14:22,15.08838555,0.0001487,53.2181,14.245,95.0125,265.1037,4.5018e-05,4.29e-06,0.0,0 STARLINK-3234,1 50815U 22001N   24032.25998084  .00000429  00000-0  45018-4 0  9997,2 50815  53.2181  14.2450 0001487  95.0125 265.1037 15.08838555115828,6917.885,95.438,540.778,538.721,0.0
